FENGYUN 1C DEB          
1 35204U 99025DPL 17345.19744910  .00000791  00000-0  38636-3 0  9990
2 35204  98.9161  68.2514 0060877 142.5489 247.4668 14.19919636492479
